STARLINK2_L_00005023-37
1 42242U 22460WG  26070.40773148  .00000000  00000+0  00000-0 0  9996
2 42242  48.0000 110.0000 0000000   0.0000 319.0476 15.74870399    14
STARLINK2_L_00005023-38
1 42243U 25422XS  26070.40773148  .00000000  00000+0  00000-0 0  9998
2 42243  48.0000 110.0000 0000000   0.0000 327.6190 15.74870399    13
STARLINK2_L_00005023-39
1 42244U 26810BN  26070.40773148  .00000000  00000+0  00000-0 0  9991
2 42244  48.0000 110.0000 0000000   0.0000 336.1905 15.74870399    13
STARLINK2_L_00005023-40
1 42245U 24418DC  26070.40773148  .00000000  00000+0  00000-0 0  9994
2 42245  48.0000 110.0000 0000000   0.0000 344.7619 15.74870399    11
STARLINK2_L_00005023-41
1 42246U 24875WK  26070.40773148  .00000000  00000+0  00000-0 0  9992
2 42246  48.0000 110.0000 0000000   0.0000 353.3333 15.74870399    11
STARLINK2_L_00005023-42
1 42247U 24071HS  26070.40773148  .00000000  00000+0  00000-0 0  9991
2 42247  48.0000 110.0000 0000000   0.0000   1.9048 15.74870399    11
STARLINK2_L_00005024-01
1 42248U 26387JY  26070.40773148  .00000000  00000+0  00000-0 0  9994
2 42248  48.0000 115.0000 0000000   0.0000  10.9524 15.74870399    16
STARLINK2_L_00005024-02
1 42249U 23454PQ  26070.40773148  .00000000  00000+0  00000-0 0  9997
2 42249  48.0000 115.0000 0000000   0.0000  19.5238 15.74870399    14
STARLINK2_L_00005024-03
1 42250U 26076BM  26070.40773148  .00000000  00000+0  00000-0 0  9992
2 42250  48.0000 115.0000 0000000   0.0000  28.0952 15.74870399    14
STARLINK2_L_00005024-04
1 42251U 25481PS  26070.40773148  .00000000  00000+0  00000-0 0  9992
2 42251  48.0000 115.0000 0000000   0.0000  36.6667 15.74870399    13
STARLINK2_L_00005024-05
1 42252U 24741EK  26070.40773148  .00000000  00000+0  00000-0 0  9991
2 42252  48.0000 115.0000 0000000   0.0000  45.2381 15.74870399    13
STARLINK2_L_00005024-06
1 42253U 25680ZF  26070.40773148  .00000000  00000+0  00000-0 0  9995
2 42253  48.0000 115.0000 0000000   0.0000  53.8095 15.74870399    11
STARLINK2_L_00005024-07
1 42254U 26159BE  26070.40773148  .00000000  00000+0  00000-0 0  9998
2 42254  48.0000 115.0000 0000000   0.0000  62.3810 15.74870399    12
STARLINK2_L_00005024-08
1 42255U 24865SJ  26070.40773148  .00000000  00000+0  00000-0 0  9991
2 42255  48.0000 115.0000 0000000   0.0000  70.9524 15.74870399    10
STARLINK2_L_00005024-09
1 42256U 26757NP  26070.40773148  .00000000  00000+0  00000-0 0  9994
2 42256  48.0000 115.0000 0000000   0.0000  79.5238 15.74870399    18
STARLINK2_L_00005024-10
1 42257U 25076PI  26070.40773148  .00000000  00000+0  00000-0 0  9998
2 42257  48.0000 115.0000 0000000   0.0000  88.0952 15.74870399    17
STARLINK2_L_00005024-11
1 42258U 26890V   26070.40773148  .00000000  00000+0  00000-0 0  9994
2 42258  48.0000 115.0000 0000000   0.0000  96.6667 15.74870399    16
STARLINK2_L_00005024-12
1 42259U 23040OO  26070.40773148  .00000000  00000+0  00000-0 0  9999
2 42259  48.0000 115.0000 0000000   0.0000 105.2381 15.74870399    17
STARLINK2_L_00005024-13
1 42260U 25428KJ  26070.40773148  .00000000  00000+0  00000-0 0  9993
2 42260  48.0000 115.0000 0000000   0.0000 113.8095 15.74870399    16
STARLINK2_L_00005024-14
1 42261U 23588RT  26070.40773148  .00000000  00000+0  00000-0 0  9999
2 42261  48.0000 115.0000 0000000   0.0000 122.3810 15.74870399    17
STARLINK2_L_00005024-15
1 42262U 25840LZ  26070.40773148  .00000000  00000+0  00000-0 0  9993
2 42262  48.0000 115.0000 0000000   0.0000 130.9524 15.74870399    15
STARLINK2_L_00005024-16
1 42263U 24162OK  26070.40773148  .00000000  00000+0  00000-0 0  9990
2 42263  48.0000 115.0000 0000000   0.0000 139.5238 15.74870399    13
STARLINK2_L_00005024-17
1 42264U 24942BY  26070.40773148  .00000000  00000+0  00000-0 0  9997
2 42264  48.0000 115.0000 0000000   0.0000 148.0952 15.74870399    12
STARLINK2_L_00005024-18
1 42265U 24281RO  26070.40773148  .00000000  00000+0  00000-0 0  9994
2 42265  48.0000 115.0000 0000000   0.0000 156.6667 15.74870399    11
STARLINK2_L_00005024-19
1 42266U 25523BO  26070.40773148  .00000000  00000+0  00000-0 0  9995
2 42266  48.0000 115.0000 0000000   0.0000 165.2381 15.74870399    11
STARLINK2_L_00005024-20
1 42267U 23735SA  26070.40773148  .00000000  00000+0  00000-0 0  9999
2 42267  48.0000 115.0000 0000000   0.0000 173.8095 15.74870399    19
STARLINK2_L_00005024-21
1 42268U 22748LG  26070.40773148  .00000000  00000+0  00000-0 0  9993
2 42268  48.0000 115.0000 0000000   0.0000 182.3810 15.74870399    10
STARLINK2_L_00005024-22
1 42269U 23846UZ  26070.40773148  .00000000  00000+0  00000-0 0  9994
2 42269  48.0000 115.0000 0000000   0.0000 190.9524 15.74870399    18
STARLINK2_L_00005024-23
1 42270U 24205IG  26070.40773148  .00000000  00000+0  00000-0 0  9996
2 42270  48.0000 115.0000 0000000   0.0000 199.5238 15.74870399    17
STARLINK2_L_00005024-24
1 42271U 25220CT  26070.40773148  .00000000  00000+0  00000-0 0  9995
2 42271  48.0000 115.0000 0000000   0.0000 208.0952 15.74870399    17
STARLINK2_L_00005024-25
1 42272U 26944A   26070.40773148  .00000000  00000+0  00000-0 0  9990
2 42272  48.0000 115.0000 0000000   0.0000 216.6667 15.74870399    16
STARLINK2_L_00005024-26
1 42273U 24586GD  26070.40773148  .00000000  00000+0  00000-0 0  9991
2 42273  48.0000 115.0000 0000000   0.0000 225.2381 15.74870399    16
STARLINK2_L_00005024-27
1 42274U 23666TU  26070.40773148  .00000000  00000+0  00000-0 0  9990
2 42274  48.0000 115.0000 0000000   0.0000 233.8095 15.74870399    14
STARLINK2_L_00005024-28
1 42275U 26886SV  26070.40773148  .00000000  00000+0  00000-0 0  9998
2 42275  48.0000 115.0000 0000000   0.0000 242.3810 15.74870399    15
STARLINK2_L_00005024-29
1 42276U 23781FK  26070.40773148  .00000000  00000+0  00000-0 0  9990
2 42276  48.0000 115.0000 0000000   0.0000 250.9524 15.74870399    13
STARLINK2_L_00005024-30
1 42277U 25394FA  26070.40773148  .00000000  00000+0  00000-0 0  9993
2 42277  48.0000 115.0000 0000000   0.0000 259.5238 15.74870399    11
STARLINK2_L_00005024-31
1 42278U 25238KJ  26070.40773148  .00000000  00000+0  00000-0 0  9991
2 42278  48.0000 115.0000 0000000   0.0000 268.0952 15.74870399    10
STARLINK2_L_00005024-32
1 42279U 24701OD  26070.40773148  .00000000  00000+0  00000-0 0  9996
2 42279  48.0000 115.0000 0000000   0.0000 276.6667 15.74870399    19
STARLINK2_L_00005024-33
1 42280U 22905XO  26070.40773148  .00000000  00000+0  00000-0 0  9992
2 42280  48.0000 115.0000 0000000   0.0000 285.2381 15.74870399    10
STARLINK2_L_00005024-34
1 42281U 22173JK  26070.40773148  .00000000  00000+0  00000-0 0  9990
2 42281  48.0000 115.0000 0000000   0.0000 293.8095 15.74870399    18
STARLINK2_L_00005024-35
1 42282U 22411IV  26070.40773148  .00000000  00000+0  00000-0 0  9996
2 42282  48.0000 115.0000 0000000   0.0000 302.3810 15.74870399    10
STARLINK2_L_00005024-36
1 42283U 23567NQ  26070.40773148  .00000000  00000+0  00000-0 0  9990
2 42283  48.0000 115.0000 0000000   0.0000 310.9524 15.74870399    18
STARLINK2_L_00005024-37
1 42284U 23926JX  26070.40773148  .00000000  00000+0  00000-0 0  9990
2 42284  48.0000 115.0000 0000000   0.0000 319.5238 15.74870399    16
STARLINK2_L_00005024-38
1 42285U 25032SU  26070.40773148  .00000000  00000+0  00000-0 0  9991
2 42285  48.0000 115.0000 0000000   0.0000 328.0952 15.74870399    15
STARLINK2_L_00005024-39
1 42286U 24736SG  26070.40773148  .00000000  00000+0  00000-0 0  9992
2 42286  48.0000 115.0000 0000000   0.0000 336.6667 15.74870399    14
STARLINK2_L_00005024-40
1 42287U 24284PN  26070.40773148  .00000000  00000+0  00000-0 0  9991
2 42287  48.0000 115.0000 0000000   0.0000 345.2381 15.74870399    14
STARLINK2_L_00005024-41
1 42288U 23616YA  26070.40773148  .00000000  00000+0  00000-0 0  9990
2 42288  48.0000 115.0000 0000000   0.0000 353.8095 15.74870399    12
STARLINK2_L_00005024-42
1 42289U 26912BK  26070.40773148  .00000000  00000+0  00000-0 0  9993
2 42289  48.0000 115.0000 0000000   0.0000   2.3810 15.74870399    14
STARLINK2_L_00005025-01
1 42290U 23062GO  26070.40773148  .00000000  00000+0  00000-0 0  9998
2 42290  48.0000 120.0000 0000000   0.0000  11.4286 15.74870399    10
STARLINK2_L_00005025-02
1 42291U 25685SM  26070.40773148  .00000000  00000+0  00000-0 0  9992
2 42291  48.0000 120.0000 0000000   0.0000  20.0000 15.74870399    11
STARLINK2_L_00005025-03
1 42292U 23707XZ  26070.40773148  .00000000  00000+0  00000-0 0  9996
2 42292  48.0000 120.0000 0000000   0.0000  28.5714 15.74870399    17
STARLINK2_L_00005025-04
1 42293U 24396LW  26070.40773148  .00000000  00000+0  00000-0 0  9992
2 42293  48.0000 120.0000 0000000   0.0000  37.1429 15.74870399    17
STARLINK2_L_00005025-05
1 42294U 26958JJ  26070.40773148  .00000000  00000+0  00000-0 0  9999
2 42294  48.0000 120.0000 0000000   0.0000  45.7143 15.74870399    16
STARLINK2_L_00005025-06
1 42295U 24706LC  26070.40773148  .00000000  00000+0  00000-0 0  9999
2 42295  48.0000 120.0000 0000000   0.0000  54.2857 15.74870399    14
STARLINK2_L_00005025-07
1 42296U 23328MC  26070.40773148  .00000000  00000+0  00000-0 0  9999
2 42296  48.0000 120.0000 0000000   0.0000  62.8571 15.74870399    13
STARLINK2_L_00005025-08
1 42297U 26417DQ  26070.40773148  .00000000  00000+0  00000-0 0  9992
2 42297  48.0000 120.0000 0000000   0.0000  71.4286 15.74870399    13
STARLINK2_L_00005025-09
1 42298U 22548GF  26070.40773148  .00000000  00000+0  00000-0 0  9994
2 42298  48.0000 120.0000 0000000   0.0000  80.0000 15.74870399    14
STARLINK2_L_00005025-10
1 42299U 26146QD  26070.40773148  .00000000  00000+0  00000-0 0  9993
2 42299  48.0000 120.0000 0000000   0.0000  88.5714 15.74870399    10
STARLINK2_L_00005025-11
1 42300U 25011ZC  26070.40773148  .00000000  00000+0  00000-0 0  9996
2 42300  48.0000 120.0000 0000000   0.0000  97.1429 15.74870399    12
STARLINK2_L_00005025-12
1 42301U 22139OU  26070.40773148  .00000000  00000+0  00000-0 0  9995
2 42301  48.0000 120.0000 0000000   0.0000 105.7143 15.74870399    12
